{"type":"FeatureCollection","features":[{"type":"Feature","geometry":{"type":"MultiPolygon","coordinates":[[[[88.1784040874426,27.904951133704863],[88.17850568293251,27.904950264793587],[88.17850666106584,27.9050405198418],[88.17870985220058,27.905038781788043],[88.1787088738987,27.904948526746427],[88.17860727841787,27.904949395807446],[88.17860630020479,27.904859140761324],[88.17840310939808,27.904860878652144],[88.17840213135807,27.90477062359822],[88.17819894070178,27.904772361182967],[88.17820089644921,27.904952871302775],[88.17830249194817,27.904952002541254],[88.17830346991296,27.905042257596055],[88.17840506549167,27.905041388756363],[88.1784040874426,27.904951133704863]]],[[[88.19143299544929,27.90709566981187],[88.19143200650325,27.9070054152135],[88.1913304095695,27.907006293713636],[88.19133238729762,27.90718680291582],[88.19153558149765,27.907185045827344],[88.19153657053714,27.907275300419954],[88.19163816771457,27.907274421760064],[88.1916361894716,27.9070939125803],[88.19143299544929,27.90709566981187]]],[[[88.18859419682659,27.907661767727852],[88.18859518344475,27.90775202241086],[88.18869678117635,27.907751145905895],[88.18869579447392,27.907660891226215],[88.18859419682659,27.907661767727852]]],[[[88.18798559695914,27.907757279868132],[88.18798658307615,27.907847534569854],[88.18808818091946,27.90784665851086],[88.18808719471816,27.907756403812456],[88.18798559695914,27.907757279868132]]],[[[88.18931229081487,27.908287413236522],[88.18910909439055,27.90828916711005],[88.1891110685383,27.908469676424613],[88.18921266692134,27.908468799518644],[88.18921464125597,27.908649308821694],[88.189316239803,27.908648431834195],[88.18931426529979,27.908467922537785],[88.1896190604077,27.90846529114592],[88.18962004790987,27.90855554578475],[88.18982324479417,27.908553791142428],[88.18982225712341,27.90846353651025],[88.19022865049995,27.908460026340304],[88.19022667449785,27.908279517098904],[88.19032827266197,27.908278639375865],[88.190329260745,27.908368893993842],[88.19053245722807,27.90836713831645],[88.19053443374506,27.90854764753545],[88.19073763054693,27.908545891545213],[88.19073861898087,27.908636146146236],[88.19094181593303,27.9086343898498],[88.19094082733051,27.908544135255433],[88.19104242571544,27.908543256998215],[88.19104341440223,27.90863351158925],[88.19114501286685,27.908632633253827],[88.19114600164252,27.90872288784031],[88.19124760018686,27.90872200942666],[88.1912485890514,27.90881226400861],[88.19165498352004,27.908808749591856],[88.19165399431833,27.90871849502324],[88.19175559283975,27.90871761623517],[88.19175460355834,27.908627361668668],[88.19195780041883,27.90862560387454],[88.19195878986882,27.90871585843438],[88.19216198687954,27.908714100334045],[88.19216396613044,27.90889460943675],[88.1922655647975,27.908893730267597],[88.1922665545141,27.90898398481379],[88.19236815326086,27.908983105566413],[88.19236518387194,27.908712341934176],[88.19226358537804,27.90871322117155],[88.19226259567519,27.90862296662171],[88.19205939884222,27.908624724865145],[88.19205741978743,27.908444215748478],[88.19215901803764,27.90844333667087],[88.19215802843283,27.90835308211405],[88.19205643026692,27.908353961188332],[88.19205445123964,27.908173452064375],[88.1918512552312,27.90817520997495],[88.19185323392132,27.90835571911223],[88.19165003755738,27.9083574767366],[88.19165102674074,27.90844773131008],[88.19154942846761,27.908448610013277],[88.19155041757126,27.90853886458887],[88.19134722084269,27.908540621777263],[88.1913462319076,27.908450367195005],[88.19114303532926,27.9084521240772],[88.19114204656732,27.908361869487067],[88.19104044835557,27.908362747812504],[88.19103847101404,27.908182238621933],[88.19114006905723,27.908181360303153],[88.19113908030904,27.908091105709374],[88.19093588438668,27.9080928622654],[88.19093489581165,27.908002607663743],[88.19113809156545,27.908000851114384],[88.19113710282643,27.907910596518178],[88.19083230944172,27.907913231219908],[88.19083329792787,27.908003485826097],[88.1907317000395,27.90800436391357],[88.19073367685701,27.908184873128977],[88.19053048072941,27.90818662909259],[88.19052949248695,27.908096374478838],[88.19042789450057,27.908097252344994],[88.19042690634697,27.9080069977267],[88.19032530844031,27.908007875514645],[88.19032234425985,27.907737111642486],[88.19011914893848,27.90773886697376],[88.19011816105606,27.907648612340623],[88.19021975863474,27.907647734715752],[88.19021877067262,27.90755748008473],[88.19011717317821,27.90755835770627],[88.19011519743624,27.90737784843392],[88.1902167947621,27.907376970819037],[88.1902158068137,27.90728671618437],[88.19041900128306,27.907284960736604],[88.19041801317069,27.907194706107376],[88.19062120745318,27.907192950366742],[88.19062219573412,27.907283204989316],[88.19082539016686,27.90728144894251],[88.19082934401072,27.907642467394027],[88.19123573416977,27.907638954348577],[88.19123474536478,27.907548699750837],[88.19133634280881,27.907547821305606],[88.19133238729762,27.90718680291582],[88.1910275959632,27.907189437986926],[88.1910266073497,27.907099183376452],[88.19062021917681,27.907102695742953],[88.19061923090501,27.907012441117956],[88.19072082787082,27.90701156314198],[88.19071983951933,27.906921308519088],[88.19061824263781,27.906922186491734],[88.19061725437517,27.906831931864307],[88.19051565757334,27.906832809758743],[88.19051368123039,27.90665230049358],[88.1902088913031,27.906654933707664],[88.19020987921945,27.906745188350836],[88.19000668574314,27.906746943459154],[88.19000767349551,27.90683719810777],[88.19010927032024,27.906836320587722],[88.19011124600728,27.907016829874653],[88.19000964901399,27.907017707401348],[88.19001063678007,27.907107962046318],[88.18990903969794,27.907108839501465],[88.1899110150753,27.907289348794407],[88.18980941782002,27.907290226181328],[88.18981139304711,27.907470735476064],[88.18970979561868,27.907471612794758],[88.18971078315482,27.907561867443626],[88.18940599058921,27.907564498960383],[88.18940500330594,27.907474244301536],[88.18930340585919,27.907475121320704],[88.1893043930582,27.907565375982877],[88.18899960043771,27.907568006601064],[88.18900058738842,27.907658261271994],[88.18910218501745,27.90765738447082],[88.18910317205703,27.907747639137213],[88.18920476976577,27.907746762257837],[88.1892077311648,27.90801752623975],[88.1893093291218,27.908016649275517],[88.18931031634826,27.9081069039304],[88.18941191438498,27.908106026887967],[88.1894129017003,27.9081962815383],[88.18931130357927,27.90819715858407],[88.18931229081487,27.908287413236522]],[[88.18941092707425,27.9080157722364],[88.18961412296541,27.908014017933528],[88.1896151104447,27.908104272578434],[88.18941191438498,27.908106026887967],[88.18941092707425,27.9080157722364]],[[88.1897127582408,27.907742376737723],[88.18961116055495,27.907743253991512],[88.18961017309395,27.907652999341742],[88.18971177069552,27.90765212209128],[88.1897127582408,27.907742376737723]],[[88.190415048861,27.906923942212398],[88.19031345196574,27.906924819960405],[88.19031246395595,27.906834565322995],[88.19041406076693,27.90683368757831],[88.190415048861,27.906923942212398]]],[[[88.18652762524992,27.913817477382473],[88.18652861040846,27.913907732052586],[88.1867318175236,27.913905981661685],[88.18673378819162,27.914086490985007],[88.18703859933593,27.914083864816998],[88.18703761374671,27.913993610165893],[88.18693601012082,27.913994485626816],[88.18693502462047,27.913904230971188],[88.1872398352315,27.91390160437367],[88.18724180674265,27.914082113663802],[88.18734341043915,27.914081237974855],[88.1873443962859,27.914171492614777],[88.18754760383383,27.91416974100554],[88.18754858985376,27.914259995637607],[88.18775179755205,27.914258243722124],[88.18775278374517,27.91434849834634],[88.18785438767178,27.91434762227292],[88.18785340139432,27.914257367652024],[88.18805660906519,27.914255615287114],[88.18805562262368,27.914165360671646],[88.18825883010764,27.914163608013776],[88.18826080333247,27.914344117230208],[88.18958165372442,27.914332717564637],[88.18958264143977,27.914422972127824],[88.19130990760307,27.914408045716076],[88.19131089675632,27.91449830022147],[88.19141250069137,27.914497421519794],[88.19141348993354,27.914587676020638],[88.1915150939483,27.91458679724073],[88.19151410462182,27.914496542743215],[88.1916157085477,27.914495663891728],[88.1916166979585,27.914585918385914],[88.19181990596512,27.914584160451575],[88.1918208955491,27.914674414937885],[88.19232891590698,27.914670018774565],[88.19232990591715,27.914760273242994],[88.19293953070108,27.9147549953552],[88.19294052122173,27.9148452498024],[88.19304212542063,27.914844369888936],[88.19304113481569,27.914754115445064],[88.19324434303111,27.91475235540009],[88.19324533380468,27.914842609837294],[88.19375335468447,27.914838208397363],[88.19375236348931,27.91474795397685],[88.19385396756716,27.91474707346749],[88.19385495884664,27.91483732788467],[88.19415977130562,27.914834685897155],[88.19416076284264,27.914924940303106],[88.19456717972754,27.91492141659108],[88.19456817160642,27.915011670982462],[88.19466977590048,27.91501078986385],[88.19466878393729,27.91492053547581],[88.19477038814242,27.91491965428564],[88.19477138018993,27.915009908670342],[88.1954826100874,27.915003738218434],[88.19548161744967,27.914913483857127],[88.19558322161804,27.914912602067716],[88.19558421434006,27.91500285642569],[88.1957874228316,27.915001092615487],[88.19578841572687,27.915091346965557],[88.19589002005004,27.91509046494475],[88.19589101303423,27.915180719290262],[88.19599261743713,27.915179837191214],[88.19599162436863,27.91508958284905],[88.19609322868261,27.915088700678435],[88.19609422183542,27.915178955017254],[88.19629743061822,27.91517719044463],[88.19629643729678,27.915086936112495],[88.19649964589253,27.91508517124694],[88.19650063938259,27.91517542557239],[88.1974150785944,27.915167479939512],[88.19741408434548,27.915077225644183],[88.19761729283992,27.91507545913073],[88.19761828725747,27.915165713419366],[88.1978214959021,27.915163946599602],[88.19782050131593,27.915073692317662],[88.19812531399536,27.915071041536283],[88.1981263088345,27.91516129580817],[88.1984311217254,27.915158644342597],[88.19843012663333,27.915068390080755],[88.19903975178472,27.915063085147303],[88.1990407473827,27.91515333938904],[88.19914235164276,27.91515245496795],[88.19914135596048,27.915062200729565],[88.19924296013163,27.915061316236923],[88.19924395589823,27.915151570471945],[88.1997519771063,27.915147146868403],[88.1997529732991,27.91523740108544],[88.20148024597646,27.91522234676921],[88.20148124360725,27.915312600927983],[88.20310691213817,27.91529841233123],[88.20310591315832,27.91520815822623],[88.20320751731788,27.915207270805606],[88.20320851638203,27.915297524907242],[88.20351332908582,27.915294862185856],[88.2035123297687,27.915204608094317],[88.20483318324065,27.915193061888697],[88.20483218283206,27.915102807839713],[88.20503539082038,27.915101030383568],[88.20503639139758,27.915191284425813],[88.2051379954691,27.915190395582012],[88.20513699480759,27.91510014154313],[88.20523859879015,27.9150992526278],[88.20523959953599,27.915189506663307],[88.20564601575713,27.915185950239454],[88.20564501467402,27.915095696217424],[88.20584822258814,27.91509391756282],[88.20584922383986,27.915184171578108],[88.20605243190404,27.915182392617144],[88.2060514304837,27.915092138608603],[88.20625463836069,27.91509035935476],[88.20625363677635,27.91500010535174],[88.20686325979004,27.914994765812793],[88.20686225770446,27.914904511828794],[88.20716706889569,27.914901841058246],[88.20716305958803,27.914540825150585],[88.20695985280636,27.914542605712192],[88.20695784851765,27.91436209773757],[88.20685624528845,27.914362987899267],[88.20685223710399,27.91400197192193],[88.20675063420741,27.91400286199524],[88.20674963225721,27.91391260799449],[88.20664802944029,27.913913497989522],[88.20664602572245,27.91373298997763],[88.20654442306952,27.91373387989102],[88.20654241953883,27.913553371867515],[88.20644081704988,27.913554261699254],[88.20643981537582,27.913464007682308],[88.20633821296653,27.913464897435777],[88.20633620980094,27.913284389391492],[88.20623460755561,27.913285279063317],[88.20623360606409,27.913195025035986],[88.20603040172816,27.9131968041482],[88.20602940040988,27.9131065501129],[88.20562299201954,27.913110107425073],[88.20562199104313,27.913019853375072],[88.20552038901825,27.913020742512504],[88.20551938813078,27.91293048845792],[88.20541778618556,27.912931377517094],[88.20541678538706,27.912841123457913],[88.20521358165132,27.91284290134481],[88.20521258102605,27.91275264727768],[88.20511097923554,27.91275353610542],[88.20510897816752,27.912573027960782],[88.2049057749098,27.91257480537809],[88.20490377419753,27.912394297215112],[88.20459896978203,27.912396962759146],[88.20459796968575,27.912306708665728],[88.20449636828894,27.912307597027255],[88.20449536828161,27.912217342929257],[88.20439376696447,27.91221823121251],[88.20439176713232,27.91203772300613],[88.20408696365894,27.91204038738634],[88.2040859640027,27.911950133271223],[88.20398436291994,27.911951021244807],[88.20398336335265,27.91186076712512],[88.20388176234955,27.911861655020438],[88.20387876392836,27.911590892643957],[88.20316755854739,27.911597105743542],[88.20316655967302,27.911506851592065],[88.20306495897009,27.911507738874786],[88.20306396018465,27.911417484718733],[88.2029623595614,27.911418371923197],[88.20296136086488,27.911328117762558],[88.20285976032129,27.911329004888778],[88.2028587617137,27.911238750723562],[88.20265556078124,27.91124052474458],[88.20265655922024,27.91133077891652],[88.20245335810067,27.91133255264469],[88.20245136156451,27.911152044286155],[88.20234976116639,27.911152931031186],[88.20234876298954,27.91106267684673],[88.2022471626711,27.911063563513498],[88.20224616458317,27.910973309324476],[88.20234776481733,27.91097242266106],[88.20234676664973,27.91088216847418],[88.2021435663454,27.910883941719394],[88.2021445643444,27.910974195912996],[88.202042964101,27.910975082426628],[88.2020419661863,27.910884828229666],[88.20153396532143,27.910889259657655],[88.20153296783283,27.910799005442673],[88.20163456793075,27.91079811931022],[88.20163357036249,27.910707865097383],[88.20122717028025,27.910711409164435],[88.20122517583194,27.910530900708242],[88.20102197610028,27.910532672279004],[88.20102097905165,27.910442418042372],[88.20061457987006,27.910445960271776],[88.20061358316323,27.910355706020493],[88.20041038371332,27.91035747667915],[88.2004083906507,27.910176968159526],[88.2003067910874,27.91017785336981],[88.20030778753211,27.91026810763358],[88.2002061878799,27.910268992772334],[88.20020519151949,27.910178738505202],[88.20010359194696,27.910179623565703],[88.20010458822308,27.910269877836196],[88.20000298856164,27.910270762825164],[88.20000199236982,27.910180508551328],[88.19949399441484,27.910184932356074],[88.1994929986491,27.910094678064244],[88.19939139912856,27.910095562597178],[88.19939239481,27.910185816892362],[88.19929079520055,27.91018670135375],[88.1992897996034,27.91009644705522],[88.19918820007364,27.910097331438372],[88.19918720456539,27.91000707713528],[88.1990856051153,27.91000796144019],[88.19908460969596,27.909917707132525],[88.19898301032555,27.909918591359194],[88.1989840056606,27.910008845670212],[88.19878080673735,27.910010613905598],[88.1987798115709,27.909920359587876],[88.19867821218665,27.909921243589885],[88.19867622203616,27.9097407349441],[88.19857462281588,27.909741618864523],[88.19857561780454,27.90983187319137],[88.19816922054018,27.909835408137575],[88.1981682258887,27.909745153797324],[88.19776182888776,27.909748687531927],[88.19776282320207,27.909838941885575],[88.19725482642578,27.909843357385594],[88.19725383253294,27.90975310301522],[88.19644103812574,27.909760163894312],[88.19644004491184,27.909669909495946],[88.19633844567453,27.909670791765496],[88.19633943880412,27.90976104616721],[88.19603464081166,27.90976369253657],[88.19603563369299,27.90985394694709],[88.19593403426867,27.909854828923777],[88.19593304147165,27.909764574509907],[88.19562824342397,27.909767219980612],[88.19562725088441,27.909676965555484],[88.19542405233156,27.9096787288215],[88.1954230599652,27.909588474388485],[88.19532146076617,27.909589355905815],[88.19532245304823,27.90967961034217],[88.1951192544678,27.909681373158854],[88.1951182623543,27.909591118715817],[88.1947118654754,27.909594643437185],[88.19471285725173,27.90968489789358],[88.19440805929143,27.9096875406583],[88.19440706776798,27.90959728619188],[88.1942038692734,27.90959904765391],[88.19420287792312,27.909508793179597],[88.19399967957875,27.909510554335398],[88.19400067076043,27.909600808816393],[88.19389907149706,27.9096016892853],[88.19389808039966,27.909511434800972],[88.19369488202773,27.909513195507454],[88.19369587295652,27.909603449998457],[88.19349267439765,27.909605210412064],[88.19349168363743,27.909514955914396],[88.19298368758132,27.909519355621196],[88.19298269724716,27.909429101105626],[88.19288109810645,27.909429980818985],[88.19288208835634,27.909520235337904],[88.19278048912675,27.90952111497971],[88.19277949896117,27.90943086045747],[88.19206830481572,27.909437015829976],[88.19206731524477,27.909346761283185],[88.19105132406158,27.90935554827378],[88.19104934661925,27.909175039109932],[88.19074454968067,27.90917767372684],[88.19074553814667,27.909267928319352],[88.19054233999614,27.90926968436285],[88.19054135169873,27.90917942976368],[88.19033815369846,27.909181185500966],[88.1903391418273,27.909271440106796],[88.190237542736,27.909272317866442],[88.19023655469147,27.909182063257283],[88.19003335666372,27.90918381854526],[88.19003236879233,27.909093563928238],[88.18993076985588,27.90909444145657],[88.18992978207336,27.909004186835],[88.18972658435533,27.90900594166035],[88.18972757196926,27.90909619628857],[88.18962597301908,27.90909707359224],[88.18962498548944,27.90900681896069],[88.18942178774394,27.909008573336727],[88.18942080038745,27.90891831869732],[88.18921760279224,27.90892007276716],[88.18921464125597,27.908649308821694],[88.18901144414818,27.908651062572048],[88.18901045714716,27.90856080791448],[88.18880726018965,27.908562561358643],[88.18880627336178,27.908472306693216],[88.18890787175853,27.908471430011897],[88.18890688485094,27.908381175348577],[88.18880528653847,27.90838205202657],[88.18880429971973,27.908291797358714],[88.18870270148699,27.908292673958492],[88.18870171475713,27.908202419286106],[88.18860011660409,27.908203295807684],[88.18859912996308,27.90811304113075],[88.18849753188977,27.90811391757412],[88.18849457224701,27.90784315352606],[88.18859617006747,27.90784227709266],[88.18859518344475,27.90775202241086],[88.18839198796782,27.907753775196145],[88.18839100151824,27.907663520506496],[88.18828940385721,27.907664396783492],[88.18829137659237,27.907844906168226],[88.18808818091946,27.90784665851086],[88.18808916712534,27.907936913208054],[88.18819076504836,27.907936037070854],[88.18819175134308,27.908026291763505],[88.18778535928641,27.908029795876285],[88.18778437332882,27.90793954117035],[88.18798756919773,27.907937789270367],[88.18798658307615,27.907847534569854],[88.18727539804503,27.907853664886105],[88.18727441251801,27.90776341016113],[88.18717281472244,27.907764285617752],[88.18717182928428,27.90767403088826],[88.18707023156843,27.907674906266667],[88.18707220228075,27.90785541573109],[88.1868690064982,27.907857166276543],[88.186867036123,27.907676656798852],[88.18676543839346,27.90767753195261],[88.186764453297,27.907587277208627],[88.18656125799278,27.907589027284885],[88.18656027306946,27.90749877253305],[88.18645867549478,27.907499647455534],[88.1864576906603,27.907409392699172],[88.18615289816175,27.907412017007395],[88.18615486732955,27.907592526538814],[88.18605326965233,27.90759340116509],[88.18605228515042,27.907503146396675],[88.18595068755293,27.907504020944753],[88.18595265639273,27.907684530487],[88.18605425415879,27.907683655932292],[88.18605523866982,27.90777391069828],[88.18585204296456,27.907775659739446],[88.1858510586221,27.90768540496683],[88.185444667494,27.907688902137323],[88.18544368349325,27.907598647350234],[88.1853420857841,27.907599521452337],[88.18534306970058,27.907689776242734],[88.18524147190259,27.907690650273274],[88.1852404880704,27.907600395479555],[88.18493569490195,27.907603017111928],[88.18493471132717,27.90751276230706],[88.18483311367953,27.907513636031442],[88.18483409717001,27.907603890839624],[88.18473249943351,27.907604764492437],[88.18473053262568,27.90742425486823],[88.1848321301936,27.907423381222042],[88.18483114671224,27.907333126411434],[88.18472954922858,27.90733400005431],[88.18472856583607,27.90724374523917],[88.18462696843214,27.907244618803848],[88.18462598512846,27.907154363984187],[88.18442279047554,27.907156110882287],[88.18442180734496,27.90706585605479],[88.18411701558423,27.9070684758304],[88.18411799846197,27.907158730667838],[88.18391480376347,27.90716047681713],[88.18391578647719,27.907250731659964],[88.18371259159191,27.907252477516355],[88.18371160904677,27.907162222666898],[88.18320362217536,27.907166585980907],[88.18320460429908,27.907256840846912],[88.18279821438287,27.907260330163492],[88.18279723259629,27.907170075284267],[88.18259403777945,27.90717181948666],[88.18259501939747,27.9072620743725],[88.18249342189796,27.907262946364675],[88.18249440343624,27.907353201252608],[88.18239280584788,27.907354073173213],[88.18239182439389,27.907263818281976],[88.18229022688526,27.907264690124396],[88.18228826415947,27.90708418033167],[88.18218666681487,27.907085052092597],[88.18218568554308,27.906994797191107],[88.18228728280339,27.906993925433486],[88.18228630145187,27.90690367053409],[88.18238789862336,27.90690279870489],[88.18238691719209,27.90681254380758],[88.18248851427475,27.9068116719068],[88.18248556975541,27.906540907217504],[88.1823839729256,27.906541779108366],[88.18238495434322,27.906632034009323],[88.18228335742457,27.9066329058286],[88.18228433876246,27.906723160731648],[88.18218274175499,27.906724032479353],[88.18218372301314,27.906814287384478],[88.18208212591684,27.906815159060617],[88.18208310709525,27.906905413967845],[88.18187991272045,27.906907157102072],[88.18187893171059,27.906816902188243],[88.18177733460065,27.90681777363973],[88.18177635367962,27.906727518721382],[88.18187795070529,27.9067266472732],[88.18187598870831,27.906546137439463],[88.18177439185122,27.90654700888104],[88.18177341094383,27.906456753959052],[88.18157021738456,27.90645849661097],[88.18156923665029,27.90636824168116],[88.18146763994811,27.9063691128915],[88.18146567866175,27.906188603021622],[88.1812624855809,27.906190345204458],[88.18126150511308,27.906100090261088],[88.18105831218261,27.906101832137807],[88.18105635159773,27.905921322234228],[88.18095475529424,27.90592219305367],[88.18095377509289,27.905831938096753],[88.18085217886913,27.90583280883801],[88.18085119875661,27.905742553876586],[88.18064800646403,27.905744295127874],[88.18064702652461,27.905654040158634],[88.18054543045577,27.905654910668662],[88.18054641031092,27.90574516564121],[88.18044481415328,27.905746036079663],[88.1804438343824,27.905655781103814],[88.18034223830449,27.90565665146409],[88.18034125862243,27.90556639648373],[88.18023966262426,27.905567266765836],[88.18024162182435,27.90574777673194],[88.18003842947728,27.90574951708471],[88.18003451176946,27.905388497121255],[88.17983132007845,27.905390237148133],[88.1798303408314,27.905299982147643],[88.17962714929077,27.90530172186842],[88.17962812836927,27.90539197687551],[88.1795265325079,27.90539284662689],[88.17952751150666,27.90548310163606],[88.1793243196017,27.905484840920778],[88.17932236194582,27.905304330888026],[88.1792207661551,27.90530520041148],[88.17921978741823,27.90521494538998],[88.17901659599173,27.905216684205666],[88.17901561742795,27.90512642917636],[88.17891402179217,27.905127298468596],[88.1789130433172,27.90503704343479],[88.17870985220058,27.905038781788043],[88.17871083050701,27.90512903682844],[88.17881242615185,27.905128167685955],[88.17881438294685,27.90530867775653],[88.17871278713345,27.905309546905603],[88.17871376545348,27.90539980194236],[88.17861216955127,27.90540067101985],[88.17861021308431,27.90522016093853],[88.17850861734613,27.90522102993456],[88.17850763920372,27.905130774888782],[88.17820285221478,27.90513338141774],[88.17820089644921,27.904952871302775],[88.17809930094573,27.90495373998943],[88.17809734536684,27.90477322986303],[88.17799575002736,27.904774098468213],[88.17799281694582,27.904503333259623],[88.17809441203248,27.90450246466431],[88.17809343426342,27.90441220959565],[88.17789024425412,27.90441394670481],[88.17789219945968,27.9045944568541],[88.17738422351442,27.904598798349642],[88.17738520070262,27.90468905343892],[88.1769788195278,27.904692525300796],[88.17698175010831,27.904963290600847],[88.17718494121041,27.90496155479991],[88.17718689529049,27.90514206498072],[88.1772884910033,27.90514119696136],[88.17728751387672,27.90505094187486],[88.1774907051202,27.90504920561809],[88.17749168241534,27.905139460698013],[88.17759327811456,27.905138592454026],[88.17759621027993,27.90540935767662],[88.17779940217045,27.90540762094428],[88.17780135730712,27.905588131073436],[88.17810614561458,27.905585525393587],[88.17810810127503,27.90576603549814],[88.17841289004737,27.905763429124647],[88.17841386813721,27.905853684165212],[88.178617060798,27.905851946201906],[88.17861803906095,27.90594220123468],[88.17892282827097,27.905939593718255],[88.17892380679129,27.906029848739923],[88.17902540326983,27.90602897941473],[88.17902638187896,27.906119234431888],[88.17912797843725,27.906118365028522],[88.17912699974384,27.906028110014663],[88.17922859621332,27.906027240539718],[88.17923349014713,27.9064785155804],[88.17943668391527,27.906476776372905],[88.17943570495086,27.906386521373797],[88.17974049531621,27.906383912010853],[88.17974441221239,27.906744931960457],[88.17984600932888,27.906744062009864],[88.17984503001375,27.90665380702758],[88.17994662704143,27.906652937005408],[88.17994858584478,27.90683344696215],[88.18005018303649,27.906832576858495],[88.18005410103481,27.90719359674424],[88.17985090597261,27.907195336903055],[88.17984992663479,27.907105081926844],[88.17974832918115,27.907105951890635],[88.1797493084347,27.90719620687014],[88.17954611334524,27.90719794657967],[88.17954807152881,27.907378456548233],[88.17944647380871,27.90737932629727],[88.17944745282301,27.907469581283028],[88.17954905062739,27.907468711530694],[88.17955198795035,27.907739476470788],[88.17945038989312,27.907740346233012],[88.17945136892557,27.907830601213913],[88.17934977077951,27.907831470904554],[88.17935074973221,27.907921725887537],[88.17924915149732,27.90792259550659],[88.17925013037026,27.908012850491655],[88.17914853204655,27.908013720039126],[88.17914951083976,27.908103975026265],[88.17894631401016,27.90810571390314],[88.17894924991123,27.90837647887707],[88.17915244724655,27.90837473998042],[88.17915342605788,27.90846499496271],[88.1790518273082,27.908465864451774],[88.1790537847759,27.908646374419305],[88.17895218585309,27.908647243840075],[88.17895414317036,27.908827753809344],[88.17885254407445,27.908828623161813],[88.17885450124126,27.909009133132813],[88.17895610050576,27.909008263773746],[88.17895707918026,27.909098518754128],[88.17885547983148,27.909099388116488],[88.1788584156293,27.909370153060234],[88.17896001523098,27.90936928368798],[88.17896099392362,27.90945953866351],[88.17865619485214,27.909462146565478],[88.17866108711898,27.909913421474315],[88.17855948699793,27.909914290641666],[88.17856144376782,27.910094800603282],[88.17845984347365,27.910095669702336],[88.17847158346218,27.911178729409606],[88.17826838083708,27.9111804674621],[88.1782703372281,27.911360977409487],[88.17816873574016,27.91136184632998],[88.17817167010776,27.911632611251836],[88.17807006836237,27.911633480107312],[88.17807104640967,27.911723735082127],[88.17786784273669,27.91172547257499],[88.17787077639994,27.911996237511904],[88.17797237849163,27.911995368793043],[88.17797140051503,27.911905113818577],[88.17807300251786,27.91190424502812],[88.1780749586442,27.912084754969243],[88.17797335647275,27.912085623766295],[88.1779753124486,27.912266133709156],[88.17807691478865,27.91226526490552],[88.17807887095123,27.91244577483694],[88.17838367845003,27.912443167956873],[88.17838270011356,27.912352913001655],[88.17858590492148,27.91235117471371],[88.17858688342658,27.912441429662348],[88.17848528094058,27.91244229884706],[88.17848723779575,27.912622808747265],[88.178893648387,27.912619331532657],[88.17889462715861,27.91270958646776],[88.17909783259566,27.912707847404477],[88.17909881154041,27.91279810233177],[88.17930201712792,27.912796362962297],[88.17930299624584,27.91288661788179],[88.17950620198381,27.912884878206125],[88.1795042434153,27.912704368379124],[88.17960584610886,27.912703498435544],[88.17960878422137,27.912974263164326],[88.18011679888575,27.91296991227345],[88.18011777868722,27.913060167164122],[88.18021938169078,27.913059296757954],[88.18022134147594,27.913239806529052],[88.18011973830376,27.913240676941825],[88.18012169793847,27.91342118671467],[88.18022330127928,27.913420316295305],[88.18022428118776,27.9135105711766],[88.18012267776264,27.913511441599272],[88.1801246374246,27.91369195136483],[88.18022624101833,27.91369108093556],[88.18022820086708,27.913871590689663],[88.18043140837817,27.913869849593226],[88.1804304282829,27.91377959472338],[88.18053203194732,27.913778724066105],[88.1805330121269,27.91386897893265],[88.1806346158711,27.91386810819718],[88.18063559613954,27.9139583630592],[88.1807371999635,27.913957492245526],[88.18073916068262,27.914138001959337],[88.18124718057743,27.9141336467344],[88.18124816136537,27.914223901572967],[88.18155297350067,27.91422128752926],[88.1815539545461,27.914311542356717],[88.1817571627822,27.91430979927979],[88.1817581440008,27.914400054099417],[88.18185974819635,27.914399182445294],[88.18186072950381,27.914489437260404],[88.18196233377913,27.91448856552807],[88.18196135238735,27.91439831071627],[88.18206295657379,27.914397438912335],[88.18206393804988,27.914487693720837],[88.18226714657777,27.91448594988166],[88.18226812822705,27.914576204682337],[88.18236973256849,27.914575332647086],[88.1823687508349,27.914485077849708],[88.18247035508746,27.91448420574286],[88.18246740966104,27.914213441353365],[88.18256901365612,27.914212569181526],[88.1825680317721,27.914122314385907],[88.18266963567832,27.914121442142477],[88.18266865371453,27.91403118734895],[88.18246544606617,27.9140329317543],[88.18246348248951,27.913852422150377],[88.18266668980063,27.913850677758244],[88.18266570785049,27.913760422961065],[88.1827673114149,27.913759550655957],[88.18277025753189,27.914030315033912],[88.1828718613447,27.914029442643983],[88.18287087921684,27.913939187855853],[88.18317569037498,27.913936570246562],[88.18317470799875,27.91384631546714],[88.183479518863,27.913843697193656],[88.18348050149217,27.913933951963152],[88.18358210518879,27.913933079052207],[88.18358407062944,27.914113588580946],[88.18378727834627,27.914111842521127],[88.18378629545505,27.914021587763987],[88.18388789922233,27.914020714625025],[88.18388593328491,27.913840205113715],[88.18419074405354,27.91383758526729],[88.18419271049682,27.914018094758745],[88.18398950298506,27.914019841411164],[88.18399146910932,27.914200350911],[88.18419467695833,27.914198604245332],[88.18419369372529,27.914108349502648],[88.18429529755868,27.91410747606077],[88.18429431424588,27.91401722132018],[88.18439591799037,27.91401634780671],[88.18439493459782,27.913926093068213],[88.18449653825346,27.91392521948315],[88.18449850521174,27.914105728952315],[88.18480331665714,27.91410310772785],[88.18480134919298,27.913922598278567],[88.18490295283038,27.913921724393898],[88.18490098521583,27.91374121494638],[88.18500258868005,27.913740340993435],[88.1850006209151,27.913559831547687],[88.18550863732469,27.91355546069258],[88.18550962162642,27.913645715399497],[88.18571282832694,27.913643966526525],[88.18571381280188,27.913734221225596],[88.1858154162296,27.91373334667344],[88.18581246256558,27.913462582582525],[88.1859140657358,27.91346170796542],[88.18591308110595,27.913371453269335],[88.18621789033635,27.913368828978555],[88.18621986010649,27.91354933834962],[88.18611825686563,27.913550213194746],[88.18611924167325,27.91364046788177],[88.1860176383435,27.913641342655307],[88.18601862307136,27.913731597344434],[88.1862218298949,27.91372984771582],[88.18622281479593,27.9138201023971],[88.18652762524992,27.913817477382473]],[[88.18829334934583,27.908025415548103],[88.18829433572941,27.90811567023622],[88.18819273764238,27.908116546454945],[88.18819175134308,27.908026291763505],[88.18829334934583,27.908025415548103]],[[88.1792217448965,27.905395455431755],[88.17912014901697,27.905396324883625],[88.17911917035984,27.905306069860053],[88.1792207661551,27.90530520041148],[88.1792217448965,27.905395455431755]],[[88.17906259360505,27.909458669213077],[88.17906455117253,27.909639179153892],[88.17896295132252,27.909640048610914],[88.17896099392362,27.90945953866351],[88.17906259360505,27.909458669213077]],[[88.17930103801454,27.9127061080416],[88.17919943530737,27.912706977760493],[88.17919845628283,27.912616722835278],[88.17940166152404,27.912614983329195],[88.17940361991486,27.912795493165213],[88.17930201712792,27.912796362962297],[88.17930103801454,27.9127061080416]],[[88.18175520035862,27.914129289636886],[88.18185680430123,27.91412841799267],[88.18185484172722,27.913947908351513],[88.18175323795325,27.913948779989116],[88.18175421915366,27.91403903481361],[88.18165261529084,27.91403990637961],[88.18165163417473,27.913949651551814],[88.18155003039166,27.913950523039613],[88.1815490493644,27.913860268207305],[88.1814474456611,27.913861139616902],[88.18144352193484,27.913500120262295],[88.18134191856424,27.913500991583774],[88.18134093772834,27.91341073673879],[88.18154414429637,27.91340899402753],[88.18154708732357,27.913679758539036],[88.18164869085369,27.913678887061145],[88.18164967195617,27.913769141892587],[88.18205608636848,27.9137656552188],[88.18206099363525,27.914216929291683],[88.18195938961742,27.914217801089002],[88.18196037100012,27.91430805590324],[88.1817571627822,27.91430979927979],[88.18175520035862,27.914129289636886]],[[88.18439395120983,27.913835838328506],[88.18429234763396,27.913836711835348],[88.18429136433484,27.913746457091108],[88.18439296782638,27.913745583587573],[88.18439395120983,27.913835838328506]],[[88.18683046485357,27.913634342369754],[88.18662725825344,27.91363609289055],[88.18662627302429,27.913545838220113],[88.18682947945578,27.91354408770595],[88.18683046485357,27.913634342369754]],[[88.18184797286142,27.913316124569203],[88.18194957604068,27.913315252879826],[88.18195055737789,27.91340550770621],[88.1820521606369,27.91340463593863],[88.18205412349359,27.913585145581145],[88.18195252006595,27.913586017355332],[88.18195153871964,27.91349576253138],[88.18184993537177,27.91349663422736],[88.18184797286142,27.913316124569203]],[[88.18235697038665,27.913402020186478],[88.18256017686373,27.913400275977214],[88.18256214056353,27.913580785586674],[88.18246053715865,27.913581657735367],[88.18245955539078,27.913491402927942],[88.18235795206566,27.91349227499843],[88.18235697038665,27.913402020186478]],[[88.20501137835836,27.912934933004774],[88.20490977638997,27.91293582168945],[88.20490877601299,27.91284556761343],[88.20501037789707,27.91284467893212],[88.20501137835836,27.912934933004774]],[[88.18072641633316,27.91296468873272],[88.18062481343661,27.912965559510088],[88.18062383321815,27.912875304634706],[88.18072543603039,27.912874433860633],[88.18072641633316,27.91296468873272]],[[88.1794983678186,27.91216283886898],[88.17929516342953,27.91216457849189],[88.17929320527081,27.911984068632268],[88.17949640932265,27.911982329022557],[88.1794983678186,27.91216283886898]],[[88.20347435914972,27.91177495171505],[88.20337275820778,27.911775839232543],[88.20337175915556,27.91168558509023],[88.20347336001319,27.9116846975761],[88.20347435914972,27.91177495171505]],[[88.17898056872892,27.911264637918958],[88.17887896735702,27.911265507360422],[88.17887798865796,27.91117525240589],[88.17897958994557,27.911174382967726],[88.17898056872892,27.911264637918958]],[[88.1798930217924,27.911076299731256],[88.17968981946291,27.911078039874184],[88.17968786073867,27.910897530011795],[88.17978946173709,27.910896659984374],[88.17979044118124,27.910986914912876],[88.17989204225941,27.910986044807267],[88.1798930217924,27.911076299731256]],[[88.1797884822975,27.910806405054657],[88.17989008320706,27.91080553495564],[88.17988910368769,27.910715280028008],[88.17999070450843,27.910714409857405],[88.17999266372031,27.91089491970486],[88.17978946173709,27.910896659984374],[88.1797884822975,27.910806405054657]],[[88.18009034596231,27.91053302976619],[88.18019194660538,27.910532159452394],[88.18019292636856,27.910622414372554],[88.18009132564121,27.91062328468965],[88.18009034596231,27.91053302976619]],[[88.18019096684672,27.910441904531012],[88.18008936628797,27.910442774841506],[88.18008838661817,27.910352519915612],[88.17998678613915,27.910353390147918],[88.1799858065582,27.91026313521751],[88.18018900734307,27.910261394684607],[88.18018998709263,27.910351649608415],[88.18029158756256,27.910350779226327],[88.1802906077287,27.91026052430582],[88.18049380848633,27.91025878332357],[88.18049674850732,27.910529548061653],[88.18019194660538,27.910532159452394],[88.18019096684672,27.910441904531012]],[[88.18840283921494,27.908746576702157],[88.18830124054247,27.908747453019014],[88.18829926771588,27.90856694365858],[88.18840086621978,27.908566067348357],[88.18839987972906,27.90847581266964],[88.18850147814409,27.90847493628786],[88.18850246471911,27.90856519096326],[88.18870566170405,27.9085634379684],[88.18870960872412,27.90892445663127],[88.18850641106488,27.9089262096527],[88.18850542447157,27.908835954982163],[88.18840382571938,27.90883683137723],[88.18840283921494,27.908746576702157]],[[88.18128994052431,27.90871748312563],[88.18108674270532,27.908719225193856],[88.18108576227887,27.908628970277892],[88.18128895992926,27.90862722821626],[88.18128994052431,27.90871748312563]],[[88.18758610643236,27.908392566321535],[88.18748450806048,27.908393442026032],[88.18748352233749,27.908303187315],[88.18768671890811,27.908301435837753],[88.18768770479967,27.908391690542146],[88.18799249987418,27.908389062754694],[88.18799151372976,27.90829880806026],[88.1880931119945,27.908297931984656],[88.1880950844565,27.908478441365673],[88.18819668288526,27.908477565208546],[88.18819766920741,27.90856781989391],[88.18779127512784,27.90857132408639],[88.18779028914284,27.908481069387747],[88.18758709224421,27.908482821028038],[88.18758610643236,27.908392566321535]],[[88.18067250642567,27.908000668964327],[88.18087570293235,27.907998927548],[88.18088060410817,27.908450202191194],[88.18077900543565,27.908451072953305],[88.18077998560015,27.908541327881604],[88.18057678807291,27.908543069187775],[88.1805718881387,27.908091794501136],[88.18067348648317,27.908090923901995],[88.18067250642567,27.908000668964327]],[[88.18138859740263,27.90844584725737],[88.18128699875282,27.908446718393897],[88.18128797933878,27.908536973305687],[88.18118638060014,27.908537844370642],[88.18118441960137,27.908357334539247],[88.18138761673694,27.908355592347657],[88.18138859740263,27.90844584725737]],[[88.18351136145523,27.907434732781724],[88.1834097638281,27.907435605454452],[88.18340878152671,27.9073453505975],[88.18351037906956,27.907344477928078],[88.18351136145523,27.907434732781724]],[[88.18167769917328,27.906999154856013],[88.1815761018857,27.907000026164358],[88.18157512112414,27.90690977124183],[88.18167671832745,27.906908899936795],[88.18167769917328,27.906999154856013]],[[88.18106419404626,27.90664336181941],[88.18147058191175,27.906639877687205],[88.18147156257538,27.906730132616676],[88.18157315961467,27.906729261393128],[88.18157414036715,27.906819516318084],[88.18126934898278,27.906822129774003],[88.18127032948694,27.906912384707663],[88.18116873226543,27.906913255713174],[88.18116677143023,27.906732745838056],[88.18106517437276,27.906733616762086],[88.18106419404626,27.90664336181941]],[[88.1803451773779,27.905927416397883],[88.18014198470279,27.90592915691361],[88.18014100517567,27.90583890193029],[88.18034419768222,27.905837161421168],[88.1803451773779,27.905927416397883]],[[88.17871474377803,27.905490056977907],[88.1789179357374,27.9054883185917],[88.17891891423504,27.90557857361944],[88.1790205102922,27.905577704310723],[88.17902344606517,27.90584846937677],[88.17882025344066,27.905850207939086],[88.1788192750137,27.9057599529117],[88.17871767877891,27.90576082207725],[88.17871474377803,27.905490056977907]]],[[[88.18592095827259,27.91409349080401],[88.18612416577972,27.91409174129867],[88.18612219612343,27.913911231935554],[88.18602059254079,27.913912106719046],[88.18601862307136,27.913731597344434],[88.1858154162296,27.91373334667344],[88.1858164007934,27.913823601367994],[88.18591800430087,27.913822726737617],[88.18592095827259,27.91409349080401]]]]},"properties":{"date":"2026-09-01","area_m2":1683500.0,"method":"s1_threshold"}}]}